FLOCK 4BE-35            
1 60558U 24149CU  26119.79820031  .00125093  00000+0  18472-2 0  9996
2 60558  97.3712 204.1719 0003590 150.9871 209.1583 15.54907457 94915
FLOCK 4BE-5             
1 60559U 24149CV  26119.73531297  .00017529  00000+0  45732-3 0  9998
2 60559  97.3848 203.3233 0004772 113.5206 246.6541 15.38874550 94827
FLOCK 4BE-3             
1 60561U 24149CX  26119.76396286  .00017452  00000+0  43795-3 0  9993
2 60561  97.3700 203.2686 0005790 107.2880 252.9000 15.40061920 94885
FLOCK 4BE-19            
1 60563U 24149CZ  26119.82375073  .00019037  00000+0  44083-3 0  9995
2 60563  97.3745 204.6441 0005675 108.4326 251.7539 15.42477035 94963
FLOCK 4G-8              
1 62613U 25009E   26119.72979669  .00010239  00000+0  36818-3 0  9991
2 62613  97.4013 201.9730 0005711 123.1129 237.0660 15.28800338 71515
FLOCK 4G-13             
1 62621U 25009N   26119.72465544  .00059592  00000+0  15563-2 0  9990
2 62621  97.3974 202.3533 0005382 139.8180 220.3464 15.38570510 71536
FLOCK 4G-9              
1 62622U 25009P   26119.86590980  .00009771  00000+0  36879-3 0  9997
2 62622  97.3966 201.2031 0006075 127.8512 232.3277 15.27213473 71484
FLOCK 4G-7              
1 62624U 25009R   26119.82265661  .00011265  00000+0  41106-3 0  9990
2 62624  97.3952 201.4525 0004279 122.9690 237.1961 15.28298203 71510
FLOCK 4G-12             
1 62625U 25009S   26119.81215095  .00011168  00000+0  40915-3 0  9995
2 62625  97.4028 201.9257 0005840 119.3311 240.8512 15.28163779 71510
FLOCK 4G-11             
1 62629U 25009W   26119.73885877  .00009656  00000+0  35227-3 0  9990
2 62629  97.3934 201.4937 0004311 124.6755 235.4891 15.28348072 71513
PELICAN-2               
1 62631U 25009Y   26119.78717245  .00054430  00000+0  13350-2 0  9993
2 62631  97.3527 210.6130 0003690  91.2484 268.9185 15.40523729 72109
FLOCK 4G-26             
1 62633U 25009AA  26119.82366411  .00011061  00000+0  40223-3 0  9998
2 62633  97.4025 202.0720 0004955 113.4609 246.7152 15.28412879 71528
FLOCK 4G-28             
1 62634U 25009AB  26119.53724050  .00008502  00000+0  26047-3 0  9998
2 62634  97.4028 203.9342 0003445 112.5120 247.6488 15.34041595 71626
FLOCK 4G-20             
1 62636U 25009AD  26119.76359500  .00084140  00000+0  17935-2 0  9996
2 62636  97.3894 203.0834 0003874 164.4739 195.6629 15.44601734 71620
FLOCK 4G-24             
1 62637U 25009AE  26119.46406449  .00009403  00000+0  33683-3 0  9997
2 62637  97.4030 201.9616 0004568 105.5800 254.5945 15.28955297 71483
FLOCK 4G-3              
1 62639U 25009AG  26119.82278604  .00011383  00000+0  41450-3 0  9990
2 62639  97.4031 202.0881 0004487 110.4010 249.7712 15.28364720 71517
FLOCK 4G-27             
1 62641U 25009AJ  26119.77480409  .00011030  00000+0  40203-3 0  9999
2 62641  97.3943 201.4855 0003684 116.0780 244.0839 15.28343214 71501
FLOCK 4G-29             
1 62642U 25009AK  26119.76519131  .00010409  00000+0  37824-3 0  9998
2 62642  97.4028 201.9886 0004485 107.3961 252.7769 15.28458355 71501
FLOCK 4G-22             
1 62645U 25009AN  26119.77680852  .00009916  00000+0  36201-3 0  9990
2 62645  97.4014 202.0635 0003960 108.4648 251.7022 15.28319987 71524
FLOCK 4G-25             
1 62646U 25009AP  26119.76039941  .00010118  00000+0  36725-3 0  9994
2 62646  97.4019 202.0963 0003561 115.6287 244.5320 15.28505064 71524
FLOCK 4G-23             
1 62647U 25009AQ  26119.86505119  .00038269  00000+0  13551-2 0  9999
2 62647  97.3947 201.7082 0002563 130.3461 229.8003 15.29022557 71538
FLOCK 4G-34             
1 62650U 25009AT  26119.75490822  .00011037  00000+0  40285-3 0  9994
2 62650  97.3969 201.6524 0003451 114.8368 245.3230 15.28297867 71516
FLOCK 4G-21             
1 62651U 25009AU  26119.82909535  .00012787  00000+0  44764-3 0  9998
2 62651  97.3997 202.4925 0003248 116.3544 243.8030 15.29631267 71562
FLOCK 4G-31             
1 62652U 25009AV  26119.77532352  .00010622  00000+0  38981-3 0  9992
2 62652  97.3975 201.6609 0003063 117.9671 242.1879 15.28129643 71519
FLOCK 4G-4              
1 62659U 25009BC  26119.78842735  .00010294  00000+0  38053-3 0  9994
2 62659  97.3958 201.4112 0003968 123.4807 236.6812 15.27895794129112
FLOCK 4G-6              
1 62660U 25009BD  26119.78748534  .00009862  00000+0  35647-3 0  9993
2 62660  97.3949 201.4987 0004721 133.3165 226.8469 15.28643911129100
FLOCK 4G-2              
1 62661U 25009BE  26119.53443956  .00009765  00000+0  35028-3 0  9992
2 62661  97.4016 201.7864 0005567 129.4260 230.7474 15.28895228129093
FLOCK 4G-5              
1 62663U 25009BG  26119.75822508  .00009062  00000+0  31791-3 0  9995
2 62663  97.4030 202.3157 0004887 115.1317 245.0430 15.29650694 71535
FLOCK 4G-1              
1 62666U 25009BK  26119.77135228  .00011138  00000+0  40216-3 0  9995
2 62666  97.4032 202.0092 0005710 127.2491 232.9270 15.28643462 71517
FLOCK 4G-14             
1 62667U 25009BL  26119.78134502  .00012376  00000+0  45147-3 0  9994
2 62667  97.4033 201.8633 0005952 122.7699 237.4115 15.28277131 71508
FLOCK 4G-10             
1 62670U 25009BP  26119.66494037  .00010147  00000+0  37046-3 0  9990
2 62670  97.3934 201.1379 0005869 136.9057 223.2643 15.28301500129122
FLOCK 4G-36             
1 62675U 25009BU  26119.72647142  .00009483  00000+0  34536-3 0  9991
2 62675  97.4021 201.7288 0006150 127.1257 233.0545 15.28402191 71492
FLOCK 4G-15             
1 62678U 25009BX  26119.73608718  .00009356  00000+0  34061-3 0  9993
2 62678  97.4025 201.8727 0006328 124.1636 236.0205 15.28417121129144
FLOCK 4G-30             
1 62679U 25009BY  26119.72592171  .00034357  00000+0  12239-2 0  9999
2 62679  97.3934 201.2225 0005407 140.1576 220.0061 15.28838326129134
FLOCK 4G-18             
1 62680U 25009BZ  26119.86486763  .00010383  00000+0  37790-3 0  9998
2 62680  97.4019 201.8292 0006631 133.8259 226.3529 15.28392945129150
FLOCK 4G-17             
1 62681U 25009CA  26119.77074817  .00011243  00000+0  40695-3 0  9996
2 62681  97.3934 201.4525 0006008 136.8406 223.3306 15.28557161129159
FLOCK 4G-33             
1 62685U 25009CE  26119.76351963  .00007635  00000+0  30973-3 0  9997
2 62685  97.3954 200.2108 0006973 132.3258 227.8572 15.24876803 71429
PELICAN-3               
1 65315U 25188A   26119.72694231  .00008814  00000+0  21793-3 0  9992
2 65315  97.1974 196.6110 0002544 124.8022 235.3465 15.40691509 37858
PELICAN-4               
1 65316U 25188B   26119.67732442  .00001387  00000+0  36014-4 0  9995
2 65316  97.1983 196.7118 0003997 133.0978 227.0603 15.40657063 37841
PELICAN-5               
1 66667U 25276B   26119.77844671  .00004904  00000+0  17945-3 0  9991
2 66667  97.4168 194.9332 0004732 138.4568 221.7032 15.28512976 23121
PELICAN-6               
1 66703U 25276AP  26119.77965472  .00004954  00000+0  17929-3 0  9992
2 66703  97.4168 195.0932 0002514  55.2484 304.8992 15.28877399 23131
FLOCK 4H-1              
1 66704U 25276AQ  26119.73719203  .00006632  00000+0  31094-3 0  9992
2 66704  97.4197 194.2054 0003608 115.7361 244.4247 15.20003398 23078
FLOCK 4H-2              
1 66705U 25276AR  26119.72392928  .00005966  00000+0  27802-3 0  9994
2 66705  97.4192 194.2150 0002762 114.7473 245.4050 15.20259422 23078
FLOCK 4H-3              
1 66706U 25276AS  26119.73580506  .00006404  00000+0  30573-3 0  9994
2 66706  97.4259 194.1835 0004830 151.8696 208.2800 15.19383610 23063
FLOCK 4H-4              
1 66707U 25276AT  26119.76041639  .00006858  00000+0  32942-3 0  9992
2 66707  97.4241 194.1181 0005409 155.7896 204.3594 15.19142362 23061
FLOCK 4H-5              
1 66708U 25276AU  26119.73204913  .00006447  00000+0  30194-3 0  9997
2 66708  97.4194 194.2163 0002328 112.2037 247.9445 15.20054984 23075
FLOCK 4H-6              
1 66709U 25276AV  26119.76213743  .00006767  00000+0  31979-3 0  9999
2 66709  97.4244 194.2754 0004563 128.7925 231.3717 15.19716814 23073
FLOCK 4H-7              
1 66710U 25276AW  26119.73174147  .00006598  00000+0  31423-3 0  9998
2 66710  97.4205 194.0729 0002759 160.5636 199.5704 15.19464023 23062
FLOCK 4H-8              
1 66711U 25276AX  26119.66154139  .00006587  00000+0  31294-3 0  9994
2 66711  97.4245 194.1028 0004071 162.0319 198.1060 15.19544524 23058
FLOCK 4H-9              
1 66712U 25276AY  26119.82195308  .00007617  00000+0  35824-3 0  9994
2 66712  97.4234 194.3301 0004555 134.9412 225.2193 15.19840815 23086
FLOCK 4H-10             
1 66713U 25276AZ  26119.75071966  .00006995  00000+0  33476-3 0  9999
2 66713  97.4210 194.0640 0005318 155.8389 204.3096 15.19266518 23067
FLOCK 4H-11             
1 66714U 25276BA  26119.77551462  .00013531  00000+0  60705-3 0  9995
2 66714  97.4220 194.3712 0003766 160.7196 199.4183 15.21311124 23088
FLOCK 4H-12             
1 66715U 25276BB  26119.74521566  .00008280  00000+0  38861-3 0  9998
2 66715  97.4206 194.2130 0003652 120.9722 239.1872 15.19888732 23384
FLOCK 4H-13             
1 66716U 25276BC  26119.72509904  .00006209  00000+0  29010-3 0  9994
2 66716  97.4241 194.3119 0002856 106.9873 253.1675 15.20150633 23075
FLOCK 4H-14             
1 66717U 25276BD  26119.76960642  .00006394  00000+0  29609-3 0  9998
2 66717  97.4222 194.3767 0002482 103.6770 256.4742 15.20451230 22335
FLOCK 4H-15             
1 66718U 25276BE  26119.44205619  .00005756  00000+0  27812-3 0  9995
2 66718  97.4236 193.7680 0004780 166.7655 193.3706 15.19010011 23014
FLOCK 4H-16             
1 66719U 25276BF  26119.82206183  .00008208  00000+0  39274-3 0  9995
2 66719  97.4250 194.2085 0005118 155.8459 204.3017 15.19218859 23077
FLOCK 4H-18             
1 66721U 25276BH  26119.76017074  .00006951  00000+0  33339-3 0  9999
2 66721  97.4196 194.0233 0004071 174.4108 185.7173 15.19196086 23068
FLOCK 4H-19             
1 66722U 25276BJ  26119.82236169  .00006352  00000+0  29375-3 0  9995
2 66722  97.4198 194.4023 0003215 102.3314 257.8282 15.20498395 22386
